{
  "norad_id": 53166,
  "name": "STARLINK-4110",
  "history": [
    {
      "epoch": "2026-04-11T20:00:01.000224Z",
      "apogee_km": 515.5579547177203,
      "perigee_km": 513.0270546036099,
      "latitude_deg": 26.141222122976437,
      "longitude_deg": 33.11321408626928,
      "height_km": 515.061645339625,
      "semi_major_axis_km": 6892.429504660665,
      "eccentricity": 0.0001836,
      "inclination_deg": 53.2167,
      "raan_deg": 14.5668,
      "arg_perigee_deg": 73.4767,
      "mean_anomaly_deg": 73.2285,
      "mean_motion_rev_day": 15.17204991
    },
    {
      "epoch": "2026-04-13T06:00:02.000160Z",
      "apogee_km": 512.8500747285852,
      "perigee_km": 511.78756644105124,
      "latitude_deg": -24.257031330610538,
      "longitude_deg": 57.097153732606145,
      "height_km": 519.527108028429,
      "semi_major_axis_km": 6890.455820584818,
      "eccentricity": 7.71e-05,
      "inclination_deg": 53.2167,
      "raan_deg": 8.1243,
      "arg_perigee_deg": 81.2092,
      "mean_anomaly_deg": 248.1952,
      "mean_motion_rev_day": 15.17856914
    },
    {
      "epoch": "2026-04-14T20:00:01.999008Z",
      "apogee_km": 509.3826943861468,
      "perigee_km": 508.64714656103934,
      "latitude_deg": -9.776931864852076,
      "longitude_deg": -149.4600446005998,
      "height_km": 511.5834385229219,
      "semi_major_axis_km": 6887.151920473592,
      "eccentricity": 5.34e-05,
      "inclination_deg": 53.2171,
      "raan_deg": 0.9133,
      "arg_perigee_deg": 59.4896,
      "mean_anomaly_deg": 288.4461,
      "mean_motion_rev_day": 15.18949263
    },
    {
      "epoch": "2026-04-15T20:00:01.999008Z",
      "apogee_km": 508.1787651705017,
      "perigee_km": 505.1948825252475,
      "latitude_deg": 43.92794568911485,
      "longitude_deg": -101.90409775765826,
      "height_km": 509.7430306237501,
      "semi_major_axis_km": 6884.823823847874,
      "eccentricity": 0.0002167,
      "inclination_deg": 53.2173,
      "raan_deg": 356.353,
      "arg_perigee_deg": 80.3071,
      "mean_anomaly_deg": 339.4738,
      "mean_motion_rev_day": 15.19719775
    },
    {
      "epoch": "2026-04-16T20:00:01.999008Z",
      "apogee_km": 505.5667725564608,
      "perigee_km": 504.60862767820527,
      "latitude_deg": 35.00786556599699,
      "longitude_deg": -4.580276902540574,
      "height_km": 507.2736167403247,
      "semi_major_axis_km": 6883.224700117333,
      "eccentricity": 6.96e-05,
      "inclination_deg": 53.2171,
      "raan_deg": 351.787,
      "arg_perigee_deg": 101.4705,
      "mean_anomaly_deg": 32.9404,
      "mean_motion_rev_day": 15.20249402
    },
    {
      "epoch": "2026-04-18T00:00:04.000320Z",
      "apogee_km": 505.27208654331935,
      "perigee_km": 503.65825398643483,
      "latitude_deg": 33.582913806387914,
      "longitude_deg": 169.89265015013072,
      "height_km": 506.1012123260227,
      "semi_major_axis_km": 6882.602170264877,
      "eccentricity": 0.00011724,
      "inclination_deg": 53.2204,
      "raan_deg": 346.4566,
      "arg_perigee_deg": 75.3227,
      "mean_anomaly_deg": 328.209,
      "mean_motion_rev_day": 15.20455666
    },
    {
      "epoch": "2026-04-18T20:00:01.000224Z",
      "apogee_km": 502.78628067131194,
      "perigee_km": 501.1405606506887,
      "latitude_deg": -49.784078057544924,
      "longitude_deg": 134.13123931679627,
      "height_km": 519.8076853305536,
      "semi_major_axis_km": 6880.100420661,
      "eccentricity": 0.0001196,
      "inclination_deg": 53.2169,
      "raan_deg": 342.6459,
      "arg_perigee_deg": 72.4166,
      "mean_anomaly_deg": 215.5976,
      "mean_motion_rev_day": 15.21285046
    },
    {
      "epoch": "2026-04-19T20:00:01.999008Z",
      "apogee_km": 501.0510034054432,
      "perigee_km": 499.9971925252339,
      "latitude_deg": 6.568425576532838,
      "longitude_deg": -164.96081060907116,
      "height_km": 500.6309771066136,
      "semi_major_axis_km": 6878.661097965338,
      "eccentricity": 7.66e-05,
      "inclination_deg": 53.2174,
      "raan_deg": 338.0687,
      "arg_perigee_deg": 78.084,
      "mean_anomaly_deg": 290.1845,
      "mean_motion_rev_day": 15.21762552
    },
    {
      "epoch": "2026-04-20T14:00:03.000384Z",
      "apogee_km": 500.8655214994242,
      "perigee_km": 499.28697155934515,
      "latitude_deg": 16.288990039465794,
      "longitude_deg": 83.4001977326881,
      "height_km": 500.0239211062408,
      "semi_major_axis_km": 6878.213246529384,
      "eccentricity": 0.00011475,
      "inclination_deg": 53.2176,
      "raan_deg": 334.6323,
      "arg_perigee_deg": 91.1514,
      "mean_anomaly_deg": 68.3632,
      "mean_motion_rev_day": 15.21911181
    }
  ]
}